CCSDS_OMM_VERS = 2.0
CREATION_DATE  = 
ORIGINATOR     = 

OBJECT_NAME    = STARLINK-36773
OBJECT_ID      = 2026-032E
CENTER_NAME    = EARTH
REF_FRAME      = TEME
TIME_SYSTEM    = UTC
MEAN_ELEMENT_THEORY = SGP/SGP4

EPOCH          = 2026-03-04T04:00:03.000096
MEAN_MOTION    = 15.75187130
ECCENTRICITY   = .0001491
INCLINATION    = 97.2838
RA_OF_ASC_NODE = 249.3903
ARG_OF_PERICENTER = 91.3891
MEAN_ANOMALY   = 297.2162

EPHEMERIS_TYPE = 0
CLASSIFICATION_TYPE = U
NORAD_CAT_ID   = 67801
ELEMENT_SET_NO = 999
REV_AT_EPOCH   = 383
BSTAR          = -.23861E-3
MEAN_MOTION_DOT = -.35567E-3
MEAN_MOTION_DDOT = 0

CCSDS_OMM_VERS = 2.0
CREATION_DATE  = 
ORIGINATOR     = 

OBJECT_NAME    = STARLINK-36739
OBJECT_ID      = 2026-032F
CENTER_NAME    = EARTH
REF_FRAME      = TEME
TIME_SYSTEM    = UTC
MEAN_ELEMENT_THEORY = SGP/SGP4

EPOCH          = 2026-03-04T03:29:54.120192
MEAN_MOTION    = 15.80924847
ECCENTRICITY   = .0001246
INCLINATION    = 97.2841
RA_OF_ASC_NODE = 249.4050
ARG_OF_PERICENTER = 88.5871
MEAN_ANOMALY   = 271.5540

EPHEMERIS_TYPE = 0
CLASSIFICATION_TYPE = U
NORAD_CAT_ID   = 67802
ELEMENT_SET_NO = 999
REV_AT_EPOCH   = 391
BSTAR          = .10416E-2
MEAN_MOTION_DOT = .205157E-2
MEAN_MOTION_DDOT = 0

CCSDS_OMM_VERS = 2.0
CREATION_DATE  = 
ORIGINATOR     = 

OBJECT_NAME    = STARLINK-36768
OBJECT_ID      = 2026-032G
CENTER_NAME    = EARTH
REF_FRAME      = TEME
TIME_SYSTEM    = UTC
MEAN_ELEMENT_THEORY = SGP/SGP4

EPOCH          = 2026-03-04T04:00:03.000096
MEAN_MOTION    = 15.75145886
ECCENTRICITY   = .0001575
INCLINATION    = 97.2838
RA_OF_ASC_NODE = 249.4044
ARG_OF_PERICENTER = 95.3037
MEAN_ANOMALY   = 327.3079

EPHEMERIS_TYPE = 0
CLASSIFICATION_TYPE = U
NORAD_CAT_ID   = 67803
ELEMENT_SET_NO = 999
REV_AT_EPOCH   = 389
BSTAR          = .39192E-3
MEAN_MOTION_DOT = .58619E-3
MEAN_MOTION_DDOT = 0

CCSDS_OMM_VERS = 2.0
CREATION_DATE  = 
ORIGINATOR     = 

OBJECT_NAME    = STARLINK-36792
OBJECT_ID      = 2026-032H
CENTER_NAME    = EARTH
REF_FRAME      = TEME
TIME_SYSTEM    = UTC
MEAN_ELEMENT_THEORY = SGP/SGP4

EPOCH          = 2026-03-04T04:00:03.000096
MEAN_MOTION    = 15.75180799
ECCENTRICITY   = .0001628
INCLINATION    = 97.2837
RA_OF_ASC_NODE = 249.3978
ARG_OF_PERICENTER = 78.1665
MEAN_ANOMALY   = 330.4368

EPHEMERIS_TYPE = 0
CLASSIFICATION_TYPE = U
NORAD_CAT_ID   = 67804
ELEMENT_SET_NO = 999
REV_AT_EPOCH   = 383
BSTAR          = -.12177E-3
MEAN_MOTION_DOT = -.18247E-3
MEAN_MOTION_DDOT = 0

CCSDS_OMM_VERS = 2.0
CREATION_DATE  = 
ORIGINATOR     = 

OBJECT_NAME    = STARLINK-36782
OBJECT_ID      = 2026-032J
CENTER_NAME    = EARTH
REF_FRAME      = TEME
TIME_SYSTEM    = UTC
MEAN_ELEMENT_THEORY = SGP/SGP4

EPOCH          = 2026-03-04T03:27:25.062912
MEAN_MOTION    = 15.80958294
ECCENTRICITY   = .0001426
INCLINATION    = 97.2834
RA_OF_ASC_NODE = 249.4068
ARG_OF_PERICENTER = 86.6252
MEAN_ANOMALY   = 273.5179

EPHEMERIS_TYPE = 0
CLASSIFICATION_TYPE = U
NORAD_CAT_ID   = 67805
ELEMENT_SET_NO = 999
REV_AT_EPOCH   = 391
BSTAR          = .15023E-2
MEAN_MOTION_DOT = .299669E-2
MEAN_MOTION_DDOT = 0

CCSDS_OMM_VERS = 2.0
CREATION_DATE  = 
ORIGINATOR     = 

OBJECT_NAME    = STARLINK-36389
OBJECT_ID      = 2026-032K
CENTER_NAME    = EARTH
REF_FRAME      = TEME
TIME_SYSTEM    = UTC
MEAN_ELEMENT_THEORY = SGP/SGP4

EPOCH          = 2026-03-04T04:00:03.000096
MEAN_MOTION    = 15.75191211
ECCENTRICITY   = .000184
INCLINATION    = 97.2838
RA_OF_ASC_NODE = 249.4246
ARG_OF_PERICENTER = 85.6213
MEAN_ANOMALY   = 26.9546

EPHEMERIS_TYPE = 0
CLASSIFICATION_TYPE = U
NORAD_CAT_ID   = 67806
ELEMENT_SET_NO = 999
REV_AT_EPOCH   = 389
BSTAR          = -.13075E-3
MEAN_MOTION_DOT = -.19589E-3
MEAN_MOTION_DDOT = 0

CCSDS_OMM_VERS = 2.0
CREATION_DATE  = 
ORIGINATOR     = 

OBJECT_NAME    = STARLINK-36382
OBJECT_ID      = 2026-032L
CENTER_NAME    = EARTH
REF_FRAME      = TEME
TIME_SYSTEM    = UTC
MEAN_ELEMENT_THEORY = SGP/SGP4

EPOCH          = 2026-03-04T04:00:03.000096
MEAN_MOTION    = 15.75215109
ECCENTRICITY   = .00019
INCLINATION    = 97.2839
RA_OF_ASC_NODE = 249.4290
ARG_OF_PERICENTER = 83.1959
MEAN_ANOMALY   = 41.3539

EPHEMERIS_TYPE = 0
CLASSIFICATION_TYPE = U
NORAD_CAT_ID   = 67807
ELEMENT_SET_NO = 999
REV_AT_EPOCH   = 383
BSTAR          = -.36755E-3
MEAN_MOTION_DOT = -.54666E-3
MEAN_MOTION_DDOT = 0

CCSDS_OMM_VERS = 2.0
CREATION_DATE  = 
ORIGINATOR     = 

OBJECT_NAME    = STARLINK-36811
OBJECT_ID      = 2026-032M
CENTER_NAME    = EARTH
REF_FRAME      = TEME
TIME_SYSTEM    = UTC
MEAN_ELEMENT_THEORY = SGP/SGP4

EPOCH          = 2026-03-04T03:22:39.383040
MEAN_MOTION    = 15.80904516
ECCENTRICITY   = .0001647
INCLINATION    = 97.2833
RA_OF_ASC_NODE = 249.4109
ARG_OF_PERICENTER = 65.1467
MEAN_ANOMALY   = 294.9973

EPHEMERIS_TYPE = 0
CLASSIFICATION_TYPE = U
NORAD_CAT_ID   = 67808
ELEMENT_SET_NO = 999
REV_AT_EPOCH   = 391
BSTAR          = .82944E-3
MEAN_MOTION_DOT = .162383E-2
MEAN_MOTION_DDOT = 0

CCSDS_OMM_VERS = 2.0
CREATION_DATE  = 
ORIGINATOR     = 

OBJECT_NAME    = STARLINK-36795
OBJECT_ID      = 2026-032N
CENTER_NAME    = EARTH
REF_FRAME      = TEME
TIME_SYSTEM    = UTC
MEAN_ELEMENT_THEORY = SGP/SGP4

EPOCH          = 2026-03-04T04:00:03.000096
MEAN_MOTION    = 15.75190618
ECCENTRICITY   = .0001423
INCLINATION    = 97.2840
RA_OF_ASC_NODE = 249.4123
ARG_OF_PERICENTER = 74.5963
MEAN_ANOMALY   = 9.9927

EPHEMERIS_TYPE = 0
CLASSIFICATION_TYPE = U
NORAD_CAT_ID   = 67809
ELEMENT_SET_NO = 999
REV_AT_EPOCH   = 389
BSTAR          = -.12047E-3
MEAN_MOTION_DOT = -.18062E-3
MEAN_MOTION_DDOT = 0

CCSDS_OMM_VERS = 2.0
CREATION_DATE  = 
ORIGINATOR     = 

OBJECT_NAME    = STARLINK-36807
OBJECT_ID      = 2026-032P
CENTER_NAME    = EARTH
REF_FRAME      = TEME
TIME_SYSTEM    = UTC
MEAN_ELEMENT_THEORY = SGP/SGP4

EPOCH          = 2026-03-04T03:19:41.305728
MEAN_MOTION    = 15.80898466
ECCENTRICITY   = .0001523
INCLINATION    = 97.2833
RA_OF_ASC_NODE = 249.4124
ARG_OF_PERICENTER = 60.9305
MEAN_ANOMALY   = 299.2116

EPHEMERIS_TYPE = 0
CLASSIFICATION_TYPE = U
NORAD_CAT_ID   = 67810
ELEMENT_SET_NO = 999
REV_AT_EPOCH   = 391
BSTAR          = .82425E-3
MEAN_MOTION_DOT = .161301E-2
MEAN_MOTION_DDOT = 0

CCSDS_OMM_VERS = 2.0
CREATION_DATE  = 
ORIGINATOR     = 

OBJECT_NAME    = STARLINK-36733
OBJECT_ID      = 2026-032Q
CENTER_NAME    = EARTH
REF_FRAME      = TEME
TIME_SYSTEM    = UTC
MEAN_ELEMENT_THEORY = SGP/SGP4

EPOCH          = 2026-03-04T03:17:53.953728
MEAN_MOTION    = 15.80923570
ECCENTRICITY   = .0001273
INCLINATION    = 97.2831
RA_OF_ASC_NODE = 249.4136
ARG_OF_PERICENTER = 71.2533
MEAN_ANOMALY   = 288.8874

EPHEMERIS_TYPE = 0
CLASSIFICATION_TYPE = U
NORAD_CAT_ID   = 67811
ELEMENT_SET_NO = 999
REV_AT_EPOCH   = 391
BSTAR          = .11752E-2
MEAN_MOTION_DOT = .232202E-2
MEAN_MOTION_DDOT = 0

CCSDS_OMM_VERS = 2.0
CREATION_DATE  = 
ORIGINATOR     = 

OBJECT_NAME    = STARLINK-36377
OBJECT_ID      = 2026-032R
CENTER_NAME    = EARTH
REF_FRAME      = TEME
TIME_SYSTEM    = UTC
MEAN_ELEMENT_THEORY = SGP/SGP4

EPOCH          = 2026-03-04T03:13:19.955136
MEAN_MOTION    = 15.80921777
ECCENTRICITY   = .0001563
INCLINATION    = 97.2834
RA_OF_ASC_NODE = 249.4183
ARG_OF_PERICENTER = 75.9115
MEAN_ANOMALY   = 284.2327

EPHEMERIS_TYPE = 0
CLASSIFICATION_TYPE = U
NORAD_CAT_ID   = 67812
ELEMENT_SET_NO = 999
REV_AT_EPOCH   = 391
BSTAR          = .10786E-2
MEAN_MOTION_DOT = .212599E-2
MEAN_MOTION_DDOT = 0

